ONEWEB-0613             
1 56071U 23043AB  23349.81780082  .00000042  00000+0  76374-4 0  9992
2 56071  87.9012  81.2302 0001587 120.5514 239.5773 13.15548904 36211
ONEWEB-0630             
1 56072U 23043AC  23349.81304169 -.00000093  00000+0 -28148-3 0  9994
2 56072  87.9008  81.2289 0001847 122.8038 237.3270 13.15549029 36202
ONEWEB-0632             
1 56073U 23043AD  23349.80829133 -.00000001  00000+0 -36274-4 0  9996
2 56073  87.9011  81.2479 0001301 108.6062 251.5210 13.15549909 36201
ONEWEB-0633             
1 56074U 23043AE  23349.80194656  .00000091  00000+0  20873-3 0  9996
2 56074  87.9006  81.2377 0002089 126.5261 233.6062 13.15549337 36185
ONEWEB-0634             
1 56075U 23043AF  23349.78770216  .00000167  00000+0  40939-3 0  9995
2 56075  87.9010  81.2394 0002193 108.4125 251.7244 13.15549557 36170
ONEWEB-0635             
1 56076U 23043AG  23349.78292436 -.00000061  00000+0 -19629-3 0  9996
2 56076  87.8982  81.3017 0001244 109.4368 250.6897 13.15551500 36204
ONEWEB-0636             
1 56077U 23043AH  23349.77500202 -.00000380  00000+0 -10426-2 0  9998
2 56077  87.8995  81.2702 0001395 103.8349 256.2936 13.15548926 36184
ONEWEB-0637             
1 56078U 23043AJ  23349.76868172  .00000032  00000+0  49894-4 0  9996
2 56078  87.9013  81.2463 0001277  97.5783 262.5492 13.15547873 36201
